[{"OBJECT_NAME":"STARLINK-32687","OBJECT_ID":"2025-075T","EPOCH":"2026-03-09T13:01:13.308096","MEAN_MOTION":15.27591814,"ECCENTRICITY":0.0002249,"INCLINATION":42.9983,"RA_OF_ASC_NODE":271.5462,"ARG_OF_PERICENTER":304.0179,"MEAN_ANOMALY":56.0458,"EPHEMERIS_TYPE":0,"CLASSIFICATION_TYPE":"U","NORAD_CAT_ID":63565,"ELEMENT_SET_NO":999,"REV_AT_EPOCH":5191,"BSTAR":0.00082711081,"MEAN_MOTION_DOT":0.00022577,"MEAN_MOTION_DDOT":0},{"OBJECT_NAME":"REAL","OBJECT_ID":"2025-154G","EPOCH":"2026-03-09T17:20:09.670560","MEAN_MOTION":15.28408058,"ECCENTRICITY":0.00018528,"INCLINATION":97.4133,"RA_OF_ASC_NODE":137.2581,"ARG_OF_PERICENTER":118.5876,"MEAN_ANOMALY":241.555,"EPHEMERIS_TYPE":0,"CLASSIFICATION_TYPE":"U","NORAD_CAT_ID":64875,"ELEMENT_SET_NO":999,"REV_AT_EPOCH":3483,"BSTAR":0.0008290401,"MEAN_MOTION_DOT":0.00022901,"MEAN_MOTION_DDOT":0}]
